{
"type": "FeatureCollection",
"name": "catchnidiclum",
"crs": { "type": "name", "properties": { "name": "urn:ogc:def:crs:OGC:1.3:CRS84" } },
"features": [
{"type":"Feature","properties":{"fid":170.0,"DN":188},"geometry":{"type":"MultiPolygon","coordinates":[[[[124.844583333333333,8.23375],[124.844583333333333,8.234027777777779],[124.844305555555565,8.234027777777779],[124.844305555555565,8.234305555555556],[124.844027777777782,8.234305555555556],[124.844027777777782,8.235138888888891],[124.843472222222232,8.235138888888891],[124.843472222222232,8.234861111111112],[124.842638888888885,8.234861111111112],[124.842638888888885,8.235138888888891],[124.842361111111117,8.235138888888891],[124.842361111111117,8.235694444444444],[124.842083333333335,8.235694444444444],[124.842083333333335,8.237361111111111],[124.841805555555553,8.237361111111111],[124.841805555555553,8.23763888888889],[124.841527777777785,8.23763888888889],[124.841527777777785,8.238194444444446],[124.84125,8.238194444444446],[124.84125,8.238472222222223],[124.84097222222222,8.238472222222223],[124.84097222222222,8.239305555555557],[124.840694444444452,8.239305555555557],[124.840694444444452,8.24013888888889],[124.84041666666667,8.24013888888889],[124.84041666666667,8.240416666666668],[124.839861111111119,8.240416666666668],[124.839861111111119,8.240694444444445],[124.839583333333337,8.240694444444445],[124.839583333333337,8.24125],[124.839305555555555,8.24125],[124.839305555555555,8.241527777777778],[124.839583333333337,8.241527777777778],[124.839583333333337,8.241805555555556],[124.839305555555555,8.241805555555556],[124.839305555555555,8.242361111111112],[124.839583333333337,8.242361111111112],[124.839583333333337,8.243194444444445],[124.839305555555555,8.243194444444445],[124.839305555555555,8.243472222222223],[124.839027777777787,8.243472222222223],[124.839027777777787,8.24375],[124.83875,8.24375],[124.83875,8.244027777777779],[124.838472222222222,8.244027777777779],[124.838472222222222,8.244305555555556],[124.837916666666672,8.244305555555556],[124.837916666666672,8.245972222222223],[124.83763888888889,8.245972222222223],[124.83763888888889,8.24763888888889],[124.837361111111107,8.24763888888889],[124.837361111111107,8.248194444444445],[124.836527777777775,8.248194444444445],[124.836527777777775,8.24875],[124.83625,8.24875],[124.83625,8.249027777777778],[124.836527777777775,8.249027777777778],[124.836527777777775,8.249861111111112],[124.836805555555557,8.249861111111112],[124.836805555555557,8.250138888888889],[124.83625,8.250138888888889],[124.83625,8.250416666666668],[124.835416666666674,8.250416666666668],[124.835416666666674,8.250694444444445],[124.835138888888892,8.250694444444445],[124.835138888888892,8.25125],[124.834305555555559,8.25125],[124.834305555555559,8.252083333333335],[124.834027777777777,8.252083333333335],[124.834027777777777,8.252638888888891],[124.834305555555559,8.252638888888891],[124.834305555555559,8.25375],[124.83375,8.25375],[124.83375,8.254027777777779],[124.833472222222227,8.254027777777779],[124.833472222222227,8.25625],[124.832916666666662,8.25625],[124.832916666666662,8.256527777777778],[124.832361111111112,8.256527777777778],[124.832361111111112,8.257083333333334],[124.83208333333333,8.257083333333334],[124.83208333333333,8.257361111111113],[124.831805555555562,8.257361111111113],[124.831805555555562,8.257916666666668],[124.831527777777779,8.257916666666668],[124.831527777777779,8.258194444444445],[124.83125,8.258194444444445],[124.83125,8.259583333333333],[124.831527777777779,8.259583333333333],[124.831527777777779,8.259861111111112],[124.83125,8.259861111111112],[124.83125,8.260138888888889],[124.830972222222229,8.260138888888889],[124.830972222222229,8.260972222222223],[124.83125,8.260972222222223],[124.83125,8.261527777777779],[124.830416666666665,8.261527777777779],[124.830416666666665,8.262361111111112],[124.830694444444447,8.262361111111112],[124.830694444444447,8.26263888888889],[124.829305555555564,8.26263888888889],[124.829305555555564,8.264305555555556],[124.829027777777782,8.264305555555556],[124.829027777777782,8.264583333333334],[124.829305555555564,8.264583333333334],[124.829305555555564,8.26513888888889],[124.829583333333332,8.26513888888889],[124.829583333333332,8.265694444444446],[124.829305555555564,8.265694444444446],[124.829305555555564,8.266527777777778],[124.829583333333332,8.266527777777778],[124.829583333333332,8.267638888888889],[124.829305555555564,8.267638888888889],[124.829305555555564,8.268472222222224],[124.829861111111114,8.268472222222224],[124.829861111111114,8.26875],[124.830138888888897,8.26875],[124.830138888888897,8.270416666666668],[124.829861111111114,8.270416666666668],[124.829861111111114,8.270694444444445],[124.829583333333332,8.270694444444445],[124.829583333333332,8.270972222222223],[124.829305555555564,8.270972222222223],[124.829305555555564,8.271805555555556],[124.829027777777782,8.271805555555556],[124.829027777777782,8.272083333333335],[124.82875,8.272083333333335],[124.82875,8.27263888888889],[124.828472222222231,8.27263888888889],[124.828472222222231,8.273194444444446],[124.828194444444449,8.273194444444446],[124.828194444444449,8.27375],[124.827916666666667,8.27375],[124.827916666666667,8.274861111111113],[124.828194444444449,8.274861111111113],[124.828194444444449,8.27513888888889],[124.827638888888885,8.27513888888889],[124.827638888888885,8.275694444444445],[124.827361111111117,8.275694444444445],[124.827361111111117,8.27625],[124.827638888888885,8.27625],[124.827638888888885,8.276527777777778],[124.827916666666667,8.276527777777778],[124.827916666666667,8.277083333333334],[124.827638888888885,8.277083333333334],[124.827638888888885,8.277638888888889],[124.827916666666667,8.277638888888889],[124.827916666666667,8.277916666666668],[124.828194444444449,8.277916666666668],[124.828194444444449,8.27875],[124.827916666666667,8.27875],[124.827916666666667,8.279305555555556],[124.828194444444449,8.279305555555556],[124.828194444444449,8.280694444444446],[124.827916666666667,8.280694444444446],[124.827916666666667,8.280972222222223],[124.827083333333334,8.280972222222223],[124.827083333333334,8.28125],[124.826805555555552,8.28125],[124.826805555555552,8.281527777777779],[124.826527777777784,8.281527777777779],[124.826527777777784,8.28263888888889],[124.827083333333334,8.28263888888889],[124.827083333333334,8.282916666666667],[124.827361111111117,8.282916666666667],[124.827361111111117,8.283194444444446],[124.827638888888885,8.283194444444446],[124.827638888888885,8.283472222222223],[124.827916666666667,8.283472222222223],[124.827916666666667,8.28375],[124.828194444444449,8.28375],[124.828194444444449,8.28625],[124.82875,8.28625],[124.82875,8.286805555555556],[124.828472222222231,8.286805555555556],[124.828472222222231,8.288194444444445],[124.829027777777782,8.288194444444445],[124.829027777777782,8.288472222222223],[124.829305555555564,8.288472222222223],[124.829305555555564,8.289583333333335],[124.829027777777782,8.289583333333335],[124.829027777777782,8.289861111111112],[124.829305555555564,8.289861111111112],[124.829305555555564,8.29013888888889],[124.829583333333332,8.29013888888889],[124.829583333333332,8.290972222222223],[124.829305555555564,8.290972222222223],[124.829305555555564,8.291527777777778],[124.82875,8.291527777777778],[124.82875,8.291805555555557],[124.829027777777782,8.291805555555557],[124.829027777777782,8.292361111111113],[124.829305555555564,8.292361111111113],[124.829305555555564,8.29263888888889],[124.829583333333332,8.29263888888889],[124.829583333333332,8.292916666666667],[124.829861111111114,8.292916666666667],[124.829861111111114,8.29263888888889],[124.830694444444447,8.29263888888889],[124.830694444444447,8.293194444444445],[124.830416666666665,8.293194444444445],[124.830416666666665,8.294305555555557],[124.830138888888897,8.294305555555557],[124.830138888888897,8.294861111111112],[124.829861111111114,8.294861111111112],[124.829861111111114,8.295138888888889],[124.829583333333332,8.295138888888889],[124.829583333333332,8.295694444444445],[124.82875,8.295694444444445],[124.82875,8.295972222222224],[124.828472222222231,8.295972222222224],[124.828472222222231,8.296805555555556],[124.82875,8.296805555555556],[124.82875,8.297361111111112],[124.829027777777782,8.297361111111112],[124.829027777777782,8.297638888888891],[124.82875,8.297638888888891],[124.82875,8.297916666666667],[124.828472222222231,8.297916666666667],[124.828472222222231,8.298194444444444],[124.82875,8.298194444444444],[124.82875,8.299027777777779],[124.829305555555564,8.299027777777779],[124.829305555555564,8.299305555555556],[124.829583333333332,8.299305555555556],[124.829583333333332,8.299583333333334],[124.830138888888897,8.299583333333334],[124.830138888888897,8.30125],[124.829861111111114,8.30125],[124.829861111111114,8.301527777777778],[124.829583333333332,8.301527777777778],[124.829583333333332,8.302916666666668],[124.829305555555564,8.302916666666668],[124.829305555555564,8.30375],[124.829027777777782,8.30375],[124.829027777777782,8.304305555555556],[124.82875,8.304305555555556],[124.82875,8.304861111111112],[124.828472222222231,8.304861111111112],[124.828472222222231,8.305972222222223],[124.828194444444449,8.305972222222223],[124.828194444444449,8.306527777777779],[124.828472222222231,8.306527777777779],[124.828472222222231,8.307361111111112],[124.82875,8.307361111111112],[124.82875,8.307916666666667],[124.829027777777782,8.307916666666667],[124.829027777777782,8.308194444444446],[124.829305555555564,8.308194444444446],[124.829305555555564,8.309027777777779],[124.829583333333332,8.309027777777779],[124.829583333333332,8.31013888888889],[124.829305555555564,8.31013888888889],[124.829305555555564,8.310972222222222],[124.829027777777782,8.310972222222222],[124.829027777777782,8.311805555555557],[124.82875,8.311805555555557],[124.82875,8.312083333333334],[124.830138888888897,8.312083333333334],[124.830138888888897,8.313194444444445],[124.829861111111114,8.313194444444445],[124.829861111111114,8.313472222222224],[124.829583333333332,8.313472222222224],[124.829583333333332,8.314305555555556],[124.829583333333332,8.315972222222223],[124.829305555555564,8.315972222222223],[124.829305555555564,8.31625],[124.829027777777782,8.31625],[124.829027777777782,8.316527777777779],[124.82875,8.316527777777779],[124.82875,8.317361111111111],[124.828472222222231,8.317361111111111],[124.828472222222231,8.318472222222223],[124.828194444444449,8.318472222222223],[124.828194444444449,8.31875],[124.828472222222231,8.31875],[124.828472222222231,8.319583333333334],[124.828194444444449,8.319583333333334],[124.828194444444449,8.319861111111113],[124.827916666666667,8.319861111111113],[124.827916666666667,8.320416666666668],[124.827638888888885,8.320416666666668],[124.827638888888885,8.320972222222222],[124.827361111111117,8.320972222222222],[124.827361111111117,8.321805555555557],[124.827083333333334,8.321805555555557],[124.827083333333334,8.322638888888889],[124.827361111111117,8.322638888888889],[124.827361111111117,8.323472222222223],[124.827083333333334,8.323472222222223],[124.827083333333334,8.324027777777779],[124.826805555555552,8.324027777777779],[124.826805555555552,8.32513888888889],[124.827083333333334,8.32513888888889],[124.827083333333334,8.325972222222223],[124.827361111111117,8.325972222222223],[124.827361111111117,8.326527777777779],[124.827638888888885,8.326527777777779],[124.827638888888885,8.327361111111111],[124.827916666666667,8.327361111111111],[124.827916666666667,8.327916666666667],[124.828194444444449,8.327916666666667],[124.828194444444449,8.328194444444446],[124.828472222222231,8.328194444444446],[124.828472222222231,8.32875],[124.829027777777782,8.32875],[124.829027777777782,8.329027777777778],[124.829305555555564,8.329027777777778],[124.829305555555564,8.329305555555557],[124.829861111111114,8.329305555555557],[124.829861111111114,8.330138888888889],[124.830972222222229,8.330138888888889],[124.830972222222229,8.330972222222224],[124.83125,8.330972222222224],[124.83125,8.331527777777779],[124.830972222222229,8.331527777777779],[124.830972222222229,8.332361111111112],[124.83125,8.332361111111112],[124.83125,8.332638888888889],[124.831527777777779,8.332638888888889],[124.831527777777779,8.332361111111112],[124.831805555555562,8.332361111111112],[124.831805555555562,8.332638888888889],[124.83208333333333,8.332638888888889],[124.83208333333333,8.332361111111112],[124.832361111111112,8.332361111111112],[124.832361111111112,8.33375],[124.83208333333333,8.33375],[124.83208333333333,8.334583333333335],[124.832361111111112,8.334583333333335],[124.832361111111112,8.334861111111111],[124.833194444444445,8.334861111111111],[124.833194444444445,8.33513888888889],[124.833472222222227,8.33513888888889],[124.833472222222227,8.33625],[124.833194444444445,8.33625],[124.833194444444445,8.336805555555557],[124.833472222222227,8.336805555555557],[124.833472222222227,8.337083333333334],[124.83375,8.337083333333334],[124.83375,8.33763888888889],[124.834027777777777,8.33763888888889],[124.834027777777777,8.338472222222222],[124.834305555555559,8.338472222222222],[124.834305555555559,8.339305555555557],[124.834305555555559,8.339583333333334],[124.834583333333342,8.339583333333334],[124.834583333333342,8.339861111111112],[124.83486111111111,8.339861111111112],[124.83486111111111,8.340138888888889],[124.835138888888892,8.340138888888889],[124.835138888888892,8.340972222222224],[124.835694444444442,8.340972222222224],[124.835694444444442,8.341527777777779],[124.835694444444442,8.342916666666667],[124.835972222222225,8.342916666666667],[124.835972222222225,8.343194444444446],[124.83625,8.343194444444446],[124.83625,8.343472222222223],[124.835972222222225,8.343472222222223],[124.835972222222225,8.34375],[124.835694444444442,8.34375],[124.835694444444442,8.344861111111111],[124.835972222222225,8.344861111111111],[124.835972222222225,8.345694444444446],[124.83625,8.345694444444446],[124.83625,8.346805555555557],[124.835694444444442,8.346805555555557],[124.835694444444442,8.347638888888889],[124.835416666666674,8.347638888888889],[124.835416666666674,8.34875],[124.835694444444442,8.34875],[124.835694444444442,8.349027777777778],[124.835138888888892,8.349027777777778],[124.835138888888892,8.349583333333333],[124.834583333333342,8.349583333333333],[124.834583333333342,8.350138888888889],[124.83486111111111,8.350138888888889],[124.83486111111111,8.350416666666668],[124.834305555555559,8.350416666666668],[124.834305555555559,8.350694444444445],[124.834583333333342,8.350694444444445],[124.834583333333342,8.351805555555556],[124.835138888888892,8.351805555555556],[124.835138888888892,8.352083333333335],[124.835416666666674,8.352083333333335],[124.835416666666674,8.35263888888889],[124.835138888888892,8.35263888888889],[124.835138888888892,8.352916666666667],[124.83486111111111,8.352916666666667],[124.83486111111111,8.354027777777778],[124.834583333333342,8.354027777777778],[124.834583333333342,8.355416666666667],[124.83486111111111,8.355416666666667],[124.83486111111111,8.355972222222222],[124.835138888888892,8.355972222222222],[124.835138888888892,8.357638888888889],[124.834583333333342,8.357638888888889],[124.834583333333342,8.360138888888891],[124.83486111111111,8.360138888888891],[124.83486111111111,8.360694444444444],[124.835138888888892,8.360694444444444],[124.835138888888892,8.362083333333334],[124.835416666666674,8.362083333333334],[124.835416666666674,8.364583333333334],[124.835694444444442,8.364583333333334],[124.835694444444442,8.364861111111113],[124.835972222222225,8.364861111111113],[124.835972222222225,8.36513888888889],[124.835694444444442,8.36513888888889],[124.835694444444442,8.365416666666668],[124.835416666666674,8.365416666666668],[124.835416666666674,8.36625],[124.835694444444442,8.36625],[124.835694444444442,8.366527777777778],[124.835972222222225,8.366527777777778],[124.835972222222225,8.367361111111112],[124.835416666666674,8.367361111111112],[124.835416666666674,8.368472222222223],[124.835694444444442,8.368472222222223],[124.835694444444442,8.36875],[124.835972222222225,8.36875],[124.835972222222225,8.369027777777779],[124.836527777777775,8.369027777777779],[124.836527777777775,8.369305555555556],[124.83625,8.369305555555556],[124.83625,8.370416666666667],[124.836805555555557,8.370416666666667],[124.836805555555557,8.370972222222223],[124.837083333333339,8.370972222222223],[124.837083333333339,8.372083333333334],[124.837361111111107,8.372083333333334],[124.837361111111107,8.373194444444445],[124.837916666666672,8.373194444444445],[124.837916666666672,8.373472222222222],[124.838472222222222,8.373472222222222],[124.838472222222222,8.37375],[124.83819444444444,8.37375],[124.83819444444444,8.374583333333334],[124.838472222222222,8.374583333333334],[124.838472222222222,8.374861111111112],[124.83875,8.374861111111112],[124.83875,8.375416666666668],[124.838472222222222,8.375416666666668],[124.838472222222222,8.37625],[124.83875,8.37625],[124.83875,8.377083333333335],[124.839027777777787,8.377083333333335],[124.839027777777787,8.377916666666668],[124.83875,8.377916666666668],[124.83875,8.378194444444444],[124.838472222222222,8.378194444444444],[124.838472222222222,8.378472222222223],[124.83819444444444,8.378472222222223],[124.83819444444444,8.37875],[124.838472222222222,8.37875],[124.838472222222222,8.379861111111111],[124.83875,8.379861111111111],[124.83875,8.380694444444446],[124.839305555555555,8.380694444444446],[124.839305555555555,8.38125],[124.840138888888887,8.38125],[124.840138888888887,8.382361111111113],[124.84041666666667,8.382361111111113],[124.84041666666667,8.38263888888889],[124.840694444444452,8.38263888888889],[124.840694444444452,8.382361111111113],[124.841805555555553,8.382361111111113],[124.841805555555553,8.38263888888889],[124.842083333333335,8.38263888888889],[124.842083333333335,8.382361111111113],[124.842361111111117,8.382361111111113],[124.842361111111117,8.381805555555557],[124.842638888888885,8.381805555555557],[124.842638888888885,8.381527777777778],[124.842916666666667,8.381527777777778],[124.842916666666667,8.381805555555557],[124.84375,8.381805555555557],[124.84375,8.382083333333334],[124.844861111111115,8.382083333333334],[124.844861111111115,8.382361111111113],[124.845138888888897,8.382361111111113],[124.845138888888897,8.382083333333334],[124.845416666666665,8.382083333333334],[124.845416666666665,8.381805555555557],[124.845694444444447,8.381805555555557],[124.845694444444447,8.381527777777778],[124.84597222222223,8.381527777777778],[124.84597222222223,8.38125],[124.84625,8.38125],[124.84625,8.380694444444446],[124.84652777777778,8.380694444444446],[124.84652777777778,8.379861111111111],[124.84625,8.379861111111111],[124.84625,8.37875],[124.84652777777778,8.37875],[124.84652777777778,8.378472222222223],[124.846805555555562,8.378472222222223],[124.846805555555562,8.377638888888889],[124.84652777777778,8.377638888888889],[124.84652777777778,8.375972222222224],[124.846805555555562,8.375972222222224],[124.846805555555562,8.375138888888889],[124.84708333333333,8.375138888888889],[124.84708333333333,8.374027777777778],[124.846805555555562,8.374027777777778],[124.846805555555562,8.37375],[124.84708333333333,8.37375],[124.84708333333333,8.373472222222222],[124.847361111111113,8.373472222222222],[124.847361111111113,8.372083333333334],[124.84708333333333,8.372083333333334],[124.84708333333333,8.371805555555556],[124.84625,8.371805555555556],[124.84625,8.37125],[124.84652777777778,8.37125],[124.84652777777778,8.370694444444446],[124.84708333333333,8.370694444444446],[124.84708333333333,8.370416666666667],[124.847361111111113,8.370416666666667],[124.847361111111113,8.369583333333335],[124.846805555555562,8.369583333333335],[124.846805555555562,8.367638888888889],[124.84652777777778,8.367638888888889],[124.84652777777778,8.367361111111112],[124.84625,8.367361111111112],[124.84625,8.367083333333333],[124.84652777777778,8.367083333333333],[124.84652777777778,8.366805555555556],[124.84625,8.366805555555556],[124.84625,8.365972222222222],[124.84652777777778,8.365972222222222],[124.84652777777778,8.365416666666668],[124.84597222222223,8.365416666666668],[124.84597222222223,8.364305555555557],[124.84625,8.364305555555557],[124.84625,8.36375],[124.84597222222223,8.36375],[124.84597222222223,8.362916666666667],[124.845694444444447,8.362916666666667],[124.845694444444447,8.361805555555556],[124.84625,8.361805555555556],[124.84625,8.361527777777779],[124.84652777777778,8.361527777777779],[124.84652777777778,8.360972222222223],[124.846805555555562,8.360972222222223],[124.846805555555562,8.360138888888891],[124.84652777777778,8.360138888888891],[124.84652777777778,8.359861111111112],[124.84625,8.359861111111112],[124.84625,8.359583333333335],[124.846805555555562,8.359583333333335],[124.846805555555562,8.359027777777779],[124.84708333333333,8.359027777777779],[124.84708333333333,8.358472222222224],[124.847361111111113,8.358472222222224],[124.847361111111113,8.357916666666668],[124.84708333333333,8.357916666666668],[124.84708333333333,8.357361111111112],[124.846805555555562,8.357361111111112],[124.846805555555562,8.356527777777778],[124.84625,8.356527777777778],[124.84625,8.35625],[124.84597222222223,8.35625],[124.84597222222223,8.355416666666667],[124.84625,8.355416666666667],[124.84625,8.354861111111111],[124.84597222222223,8.354861111111111],[124.84597222222223,8.353194444444446],[124.84625,8.353194444444446],[124.84625,8.352916666666667],[124.84597222222223,8.352916666666667],[124.84597222222223,8.35263888888889],[124.845694444444447,8.35263888888889],[124.845694444444447,8.352083333333335],[124.845416666666665,8.352083333333335],[124.845416666666665,8.349861111111112],[124.845138888888897,8.349861111111112],[124.845138888888897,8.349305555555556],[124.844861111111115,8.349305555555556],[124.844861111111115,8.349027777777778],[124.845416666666665,8.349027777777778],[124.845416666666665,8.347916666666668],[124.845694444444447,8.347916666666668],[124.845694444444447,8.346805555555557],[124.84597222222223,8.346805555555557],[124.84597222222223,8.345972222222223],[124.845694444444447,8.345972222222223],[124.845694444444447,8.344305555555556],[124.84597222222223,8.344305555555556],[124.84597222222223,8.344027777777779],[124.84625,8.344027777777779],[124.84625,8.343472222222223],[124.84597222222223,8.343472222222223],[124.84597222222223,8.342916666666667],[124.845694444444447,8.342916666666667],[124.845694444444447,8.34263888888889],[124.84597222222223,8.34263888888889],[124.84597222222223,8.341527777777779],[124.84625,8.341527777777779],[124.84625,8.340972222222224],[124.84597222222223,8.340972222222224],[124.84597222222223,8.340138888888889],[124.84625,8.340138888888889],[124.84625,8.338472222222222],[124.84597222222223,8.338472222222222],[124.84597222222223,8.338194444444445],[124.84625,8.338194444444445],[124.84625,8.33763888888889],[124.846805555555562,8.33763888888889],[124.846805555555562,8.336805555555557],[124.84652777777778,8.336805555555557],[124.84652777777778,8.335416666666667],[124.846805555555562,8.335416666666667],[124.846805555555562,8.334583333333335],[124.84652777777778,8.334583333333335],[124.84652777777778,8.334027777777779],[124.846805555555562,8.334027777777779],[124.846805555555562,8.33375],[124.84652777777778,8.33375],[124.84652777777778,8.333472222222223],[124.845416666666665,8.333472222222223],[124.845416666666665,8.333194444444445],[124.844583333333333,8.333194444444445],[124.844305555555565,8.333194444444445],[124.844305555555565,8.332083333333333],[124.844583333333333,8.332083333333333],[124.844583333333333,8.330972222222224],[124.845138888888897,8.330972222222224],[124.845138888888897,8.330694444444445],[124.845694444444447,8.330694444444445],[124.845694444444447,8.329027777777778],[124.845416666666665,8.329027777777778],[124.845416666666665,8.32875],[124.845138888888897,8.32875],[124.845138888888897,8.327916666666667],[124.844861111111115,8.327916666666667],[124.844861111111115,8.327361111111111],[124.845138888888897,8.327361111111111],[124.845138888888897,8.327083333333334],[124.845694444444447,8.327083333333334],[124.845694444444447,8.326805555555556],[124.84597222222223,8.326805555555556],[124.84597222222223,8.325972222222223],[124.84625,8.325972222222223],[124.84625,8.325416666666667],[124.84652777777778,8.325416666666667],[124.84652777777778,8.324583333333335],[124.846805555555562,8.324583333333335],[124.846805555555562,8.324027777777779],[124.84708333333333,8.324027777777779],[124.84708333333333,8.323194444444445],[124.846805555555562,8.323194444444445],[124.846805555555562,8.322916666666668],[124.84652777777778,8.322916666666668],[124.84652777777778,8.322361111111112],[124.84652777777778,8.322083333333333],[124.846805555555562,8.322083333333333],[124.846805555555562,8.321527777777778],[124.84708333333333,8.321527777777778],[124.84708333333333,8.32125],[124.847361111111113,8.32125],[124.847361111111113,8.320694444444445],[124.847638888888895,8.320694444444445],[124.847638888888895,8.320416666666668],[124.847916666666663,8.320416666666668],[124.847916666666663,8.319861111111113],[124.847638888888895,8.319861111111113],[124.847638888888895,8.319583333333334],[124.847361111111113,8.319583333333334],[124.847361111111113,8.318194444444446],[124.847638888888895,8.318194444444446],[124.847638888888895,8.31763888888889],[124.847916666666663,8.31763888888889],[124.847916666666663,8.317361111111111],[124.848194444444445,8.317361111111111],[124.848194444444445,8.317083333333334],[124.848472222222227,8.317083333333334],[124.848472222222227,8.315694444444444],[124.849027777777778,8.315694444444444],[124.849027777777778,8.314583333333335],[124.84930555555556,8.314583333333335],[124.84930555555556,8.314027777777779],[124.849583333333342,8.314027777777779],[124.849583333333342,8.313194444444445],[124.84986111111111,8.313194444444445],[124.84986111111111,8.312916666666668],[124.850138888888893,8.312916666666668],[124.850138888888893,8.312083333333334],[124.850416666666675,8.312083333333334],[124.850416666666675,8.311805555555557],[124.850694444444443,8.311805555555557],[124.850694444444443,8.31125],[124.850972222222225,8.31125],[124.850972222222225,8.310972222222222],[124.85125,8.310972222222222],[124.85125,8.310694444444445],[124.851527777777775,8.310694444444445],[124.851527777777775,8.309861111111111],[124.850694444444443,8.309861111111111],[124.850694444444443,8.309583333333334],[124.850416666666675,8.309583333333334],[124.850416666666675,8.307916666666667],[124.850694444444443,8.307916666666667],[124.850694444444443,8.307361111111112],[124.850972222222225,8.307361111111112],[124.850972222222225,8.306527777777779],[124.85125,8.306527777777779],[124.85125,8.305416666666668],[124.850972222222225,8.305416666666668],[124.850972222222225,8.305138888888889],[124.850694444444443,8.305138888888889],[124.850694444444443,8.304027777777778],[124.850972222222225,8.304027777777778],[124.850972222222225,8.30375],[124.850694444444443,8.30375],[124.850694444444443,8.30263888888889],[124.850416666666675,8.30263888888889],[124.850416666666675,8.30125],[124.850138888888893,8.30125],[124.850138888888893,8.299583333333334],[124.84986111111111,8.299583333333334],[124.84986111111111,8.299027777777779],[124.849583333333342,8.299027777777779],[124.849583333333342,8.29875],[124.84930555555556,8.29875],[124.84930555555556,8.297361111111112],[124.849583333333342,8.297361111111112],[124.849583333333342,8.296527777777779],[124.84875,8.296527777777779],[124.84875,8.295972222222224],[124.849027777777778,8.295972222222224],[124.849027777777778,8.294583333333334],[124.84875,8.294583333333334],[124.84875,8.294027777777778],[124.849027777777778,8.294027777777778],[124.849027777777778,8.293194444444445],[124.84930555555556,8.293194444444445],[124.84930555555556,8.29263888888889],[124.849583333333342,8.29263888888889],[124.849583333333342,8.291805555555557],[124.84930555555556,8.291805555555557],[124.84930555555556,8.291527777777778],[124.849027777777778,8.291527777777778],[124.849027777777778,8.29125],[124.84930555555556,8.29125],[124.84930555555556,8.29013888888889],[124.84875,8.29013888888889],[124.84875,8.289861111111112],[124.847916666666663,8.289861111111112],[124.847916666666663,8.29013888888889],[124.847638888888895,8.29013888888889],[124.847638888888895,8.290416666666667],[124.84708333333333,8.290416666666667],[124.84708333333333,8.289583333333335],[124.846805555555562,8.289583333333335],[124.846805555555562,8.288472222222223],[124.84652777777778,8.288472222222223],[124.84652777777778,8.287916666666668],[124.846805555555562,8.287916666666668],[124.846805555555562,8.287083333333333],[124.84708333333333,8.287083333333333],[124.84708333333333,8.286805555555556],[124.846805555555562,8.286805555555556],[124.846805555555562,8.28625],[124.84652777777778,8.28625],[124.84652777777778,8.285972222222224],[124.84625,8.285972222222224],[124.84625,8.285694444444445],[124.845694444444447,8.285694444444445],[124.845694444444447,8.284583333333334],[124.84597222222223,8.284583333333334],[124.84597222222223,8.284305555555557],[124.84652777777778,8.284305555555557],[124.84652777777778,8.282916666666667],[124.84625,8.282916666666667],[124.84625,8.28263888888889],[124.84652777777778,8.28263888888889],[124.84652777777778,8.282361111111111],[124.846805555555562,8.282361111111111],[124.846805555555562,8.28263888888889],[124.847361111111113,8.28263888888889],[124.847361111111113,8.282083333333334],[124.84708333333333,8.282083333333334],[124.84708333333333,8.281527777777779],[124.847638888888895,8.281527777777779],[124.847638888888895,8.28125],[124.847916666666663,8.28125],[124.847916666666663,8.28013888888889],[124.848194444444445,8.28013888888889],[124.848194444444445,8.279861111111112],[124.84875,8.279861111111112],[124.84875,8.28013888888889],[124.849027777777778,8.28013888888889],[124.849027777777778,8.279027777777779],[124.847916666666663,8.279027777777779],[124.847916666666663,8.27875],[124.84708333333333,8.27875],[124.84708333333333,8.277638888888889],[124.846805555555562,8.277638888888889],[124.846805555555562,8.277916666666668],[124.84652777777778,8.277916666666668],[124.84652777777778,8.277638888888889],[124.84625,8.277638888888889],[124.84625,8.275972222222222],[124.84597222222223,8.275972222222222],[124.84597222222223,8.27625],[124.845416666666665,8.27625],[124.845416666666665,8.27375],[124.845694444444447,8.27375],[124.845694444444447,8.274027777777778],[124.84625,8.274027777777778],[124.84625,8.27375],[124.84652777777778,8.27375],[124.84652777777778,8.27263888888889],[124.84625,8.27263888888889],[124.84625,8.271805555555556],[124.84597222222223,8.271805555555556],[124.84597222222223,8.270972222222223],[124.845694444444447,8.270972222222223],[124.845694444444447,8.270694444444445],[124.84597222222223,8.270694444444445],[124.84597222222223,8.269583333333335],[124.845694444444447,8.269583333333335],[124.845694444444447,8.269305555555556],[124.845416666666665,8.269305555555556],[124.845416666666665,8.26875],[124.844861111111115,8.26875],[124.844861111111115,8.267916666666668],[124.844583333333333,8.267916666666668],[124.844583333333333,8.267638888888889],[124.844583333333333,8.266805555555557],[124.844861111111115,8.266805555555557],[124.844861111111115,8.26625],[124.843472222222232,8.26625],[124.843472222222232,8.26513888888889],[124.844027777777782,8.26513888888889],[124.844027777777782,8.264583333333334],[124.844305555555565,8.264583333333334],[124.844305555555565,8.263472222222223],[124.844027777777782,8.263472222222223],[124.844027777777782,8.261527777777779],[124.844305555555565,8.261527777777779],[124.844305555555565,8.26125],[124.844583333333333,8.26125],[124.844583333333333,8.259583333333333],[124.844861111111115,8.259583333333333],[124.844861111111115,8.259027777777778],[124.845138888888897,8.259027777777778],[124.845138888888897,8.258472222222224],[124.845416666666665,8.258472222222224],[124.845416666666665,8.25763888888889],[124.845138888888897,8.25763888888889],[124.845138888888897,8.257361111111113],[124.845416666666665,8.257361111111113],[124.845416666666665,8.257083333333334],[124.845694444444447,8.257083333333334],[124.845694444444447,8.256805555555557],[124.84597222222223,8.256805555555557],[124.84597222222223,8.25513888888889],[124.845138888888897,8.25513888888889],[124.845138888888897,8.255416666666667],[124.844861111111115,8.255416666666667],[124.844861111111115,8.253194444444444],[124.845138888888897,8.253194444444444],[124.845138888888897,8.251527777777779],[124.844861111111115,8.251527777777779],[124.844861111111115,8.250972222222224],[124.844583333333333,8.250972222222224],[124.844583333333333,8.250416666666668],[124.844027777777782,8.250416666666668],[124.844027777777782,8.249861111111112],[124.844305555555565,8.249861111111112],[124.844305555555565,8.249027777777778],[124.844583333333333,8.249027777777778],[124.844583333333333,8.24763888888889],[124.844305555555565,8.24763888888889],[124.844305555555565,8.247361111111111],[124.844027777777782,8.247361111111111],[124.844027777777782,8.244583333333335],[124.844305555555565,8.244583333333335],[124.844305555555565,8.24375],[124.844583333333333,8.24375],[124.844583333333333,8.243472222222223],[124.844861111111115,8.243472222222223],[124.844861111111115,8.242083333333333],[124.845138888888897,8.242083333333333],[124.845138888888897,8.241527777777778],[124.844861111111115,8.241527777777778],[124.844861111111115,8.24125],[124.844583333333333,8.24125],[124.844583333333333,8.240694444444445],[124.845694444444447,8.240694444444445],[124.845694444444447,8.239583333333334],[124.84597222222223,8.239583333333334],[124.84597222222223,8.239027777777778],[124.84625,8.239027777777778],[124.84625,8.238194444444446],[124.84597222222223,8.238194444444446],[124.84597222222223,8.237083333333334],[124.84625,8.237083333333334],[124.84625,8.235972222222223],[124.84652777777778,8.235972222222223],[124.84652777777778,8.235416666666667],[124.846805555555562,8.235416666666667],[124.846805555555562,8.234861111111112],[124.84652777777778,8.234861111111112],[124.84652777777778,8.234305555555556],[124.846805555555562,8.234305555555556],[124.846805555555562,8.234027777777779],[124.84708333333333,8.234027777777779],[124.84708333333333,8.233194444444445],[124.846805555555562,8.233194444444445],[124.846805555555562,8.232916666666668],[124.84652777777778,8.232916666666668],[124.84652777777778,8.232638888888889],[124.845416666666665,8.232638888888889],[124.845416666666665,8.233194444444445],[124.845138888888897,8.233194444444445],[124.845138888888897,8.233472222222224],[124.844861111111115,8.233472222222224],[124.844861111111115,8.23375],[124.844583333333333,8.23375]]]]}}
]
}
