{
"type": "FeatureCollection",
"name": "riverNetwork",
"crs": { "type": "name", "properties": { "name": "urn:ogc:def:crs:OGC:1.3:CRS84" } },
"features": [
{"type":"Feature","properties":{"cat":330,"value":184,"label":null},"geometry":{"type":"MultiLineString","coordinates":[[[124.845,8.382222222222223],[124.845,8.382361111111114]]]}},
{"type":"Feature","properties":{"cat":331,"value":186,"label":null},"geometry":{"type":"MultiLineString","coordinates":[[[124.845138888888911,8.382222222222223],[124.845,8.382222222222223]]]}},
{"type":"Feature","properties":{"cat":336,"value":186,"label":null},"geometry":{"type":"MultiLineString","coordinates":[[[124.845,8.381944444444445],[124.845,8.382222222222223]]]}},
{"type":"Feature","properties":{"cat":416,"value":186,"label":null},"geometry":{"type":"MultiLineString","coordinates":[[[124.843611111111116,8.365555555555556],[124.844722222222231,8.366666666666667],[124.844722222222231,8.367777777777778],[124.845,8.368055555555557],[124.845,8.369166666666667],[124.844444444444449,8.369722222222222],[124.844444444444449,8.37],[124.844722222222231,8.370277777777778],[124.844722222222231,8.3725],[124.845,8.372777777777779],[124.845,8.373333333333335],[124.844444444444449,8.37388888888889],[124.844444444444449,8.374166666666667],[124.844166666666666,8.374444444444444],[124.844166666666666,8.375555555555556],[124.844444444444449,8.375833333333334],[124.844444444444449,8.378055555555557],[124.843333333333334,8.379166666666668],[124.843333333333334,8.379444444444445],[124.843611111111116,8.379722222222224],[124.843888888888898,8.379722222222224],[124.844166666666666,8.38],[124.844444444444449,8.38],[124.845277777777781,8.380833333333333],[124.845,8.381111111111112],[124.845,8.381388888888889],[124.844722222222231,8.381666666666668],[124.845,8.381944444444445]]]}},
{"type":"Feature","properties":{"cat":422,"value":186,"label":null},"geometry":{"type":"MultiLineString","coordinates":[[[124.843611111111116,8.365277777777779],[124.843333333333334,8.365277777777779]]]}},
{"type":"Feature","properties":{"cat":423,"value":186,"label":null},"geometry":{"type":"MultiLineString","coordinates":[[[124.843611111111116,8.365277777777779],[124.843611111111116,8.365555555555556]]]}},
{"type":"Feature","properties":{"cat":429,"value":186,"label":null},"geometry":{"type":"MultiLineString","coordinates":[[[124.843333333333334,8.365],[124.843333333333334,8.365277777777779]]]}},
{"type":"Feature","properties":{"cat":463,"value":186,"label":null},"geometry":{"type":"MultiLineString","coordinates":[[[124.841111111111118,8.354166666666668],[124.840555555555554,8.354722222222223],[124.840555555555554,8.355277777777779],[124.840833333333336,8.355555555555556],[124.840833333333336,8.356111111111112],[124.841111111111118,8.35638888888889],[124.841111111111118,8.356944444444446],[124.841666666666669,8.3575],[124.841666666666669,8.358333333333334],[124.841388888888886,8.358611111111111],[124.841388888888886,8.359444444444446],[124.841944444444451,8.36],[124.8425,8.36],[124.842777777777783,8.360277777777778],[124.843055555555551,8.360277777777778],[124.843333333333334,8.360555555555557],[124.843333333333334,8.360833333333334],[124.843611111111116,8.361111111111112],[124.843611111111116,8.363055555555556],[124.843333333333334,8.363333333333333],[124.843333333333334,8.365]]]}},
{"type":"Feature","properties":{"cat":465,"value":186,"label":null},"geometry":{"type":"MultiLineString","coordinates":[[[124.841388888888886,8.353888888888889],[124.841388888888886,8.354166666666668],[124.841111111111118,8.354166666666668]]]}},
{"type":"Feature","properties":{"cat":506,"value":186,"label":null},"geometry":{"type":"MultiLineString","coordinates":[[[124.840555555555554,8.3425],[124.840555555555554,8.343611111111112],[124.840277777777786,8.343888888888889],[124.840277777777786,8.345277777777779],[124.84,8.345555555555556],[124.840277777777786,8.345833333333335],[124.840555555555554,8.345833333333335],[124.840833333333336,8.346111111111112],[124.840833333333336,8.346944444444444],[124.841111111111118,8.347222222222223],[124.841111111111118,8.3475],[124.841666666666669,8.348055555555556],[124.841666666666669,8.349722222222223],[124.841111111111118,8.350277777777778],[124.841111111111118,8.35138888888889],[124.841388888888886,8.351666666666667],[124.841388888888886,8.353888888888889]]]}},
{"type":"Feature","properties":{"cat":507,"value":186,"label":null},"geometry":{"type":"MultiLineString","coordinates":[[[124.840555555555554,8.342222222222222],[124.840555555555554,8.3425]]]}},
{"type":"Feature","properties":{"cat":508,"value":188,"label":null},"geometry":{"type":"MultiLineString","coordinates":[[[124.840833333333336,8.342222222222222],[124.840555555555554,8.342222222222222]]]}},
{"type":"Feature","properties":{"cat":516,"value":188,"label":null},"geometry":{"type":"MultiLineString","coordinates":[[[124.837777777777774,8.34],[124.838055555555556,8.340277777777779],[124.838055555555556,8.340833333333334],[124.838888888888889,8.341666666666667],[124.839444444444453,8.341666666666667],[124.839722222222221,8.341944444444445],[124.840277777777786,8.341944444444445],[124.840555555555554,8.342222222222222]]]}},
{"type":"Feature","properties":{"cat":519,"value":190,"label":null},"geometry":{"type":"MultiLineString","coordinates":[[[124.837777777777774,8.339722222222223],[124.8375,8.339722222222223]]]}},
{"type":"Feature","properties":{"cat":520,"value":188,"label":null},"geometry":{"type":"MultiLineString","coordinates":[[[124.837777777777774,8.339722222222223],[124.837777777777774,8.34]]]}},
{"type":"Feature","properties":{"cat":525,"value":188,"label":null},"geometry":{"type":"MultiLineString","coordinates":[[[124.837777777777774,8.339444444444446],[124.837777777777774,8.339722222222223]]]}},
{"type":"Feature","properties":{"cat":531,"value":192,"label":null},"geometry":{"type":"MultiLineString","coordinates":[[[124.838611111111121,8.3375],[124.838333333333338,8.337777777777779],[124.838333333333338,8.338333333333335],[124.838055555555556,8.338611111111112],[124.838055555555556,8.339166666666667],[124.837777777777774,8.339444444444446]]]}},
{"type":"Feature","properties":{"cat":532,"value":192,"label":null},"geometry":{"type":"MultiLineString","coordinates":[[[124.838888888888889,8.337222222222223],[124.838888888888889,8.3375],[124.838611111111121,8.3375]]]}},
{"type":"Feature","properties":{"cat":556,"value":192,"label":null},"geometry":{"type":"MultiLineString","coordinates":[[[124.836666666666673,8.331111111111111],[124.836944444444441,8.331111111111111],[124.837222222222223,8.33138888888889],[124.837222222222223,8.331944444444446],[124.8375,8.332222222222223],[124.8375,8.333055555555557],[124.837222222222223,8.333333333333334],[124.8375,8.333611111111113],[124.837777777777774,8.333611111111113],[124.838055555555556,8.33388888888889],[124.838333333333338,8.33388888888889],[124.838888888888889,8.334444444444445],[124.838888888888889,8.334722222222222],[124.838055555555556,8.335555555555556],[124.838055555555556,8.335833333333333],[124.838333333333338,8.336111111111112],[124.838333333333338,8.336666666666668],[124.838888888888889,8.337222222222223]]]}},
{"type":"Feature","properties":{"cat":557,"value":192,"label":null},"geometry":{"type":"MultiLineString","coordinates":[[[124.836388888888891,8.330833333333334],[124.836388888888891,8.331111111111111],[124.836666666666673,8.331111111111111]]]}},
{"type":"Feature","properties":{"cat":559,"value":190,"label":null},"geometry":{"type":"MultiLineString","coordinates":[[[124.831944444444446,8.327222222222224],[124.8325,8.327777777777779],[124.8325,8.328888888888891],[124.832777777777778,8.329166666666667],[124.832777777777778,8.329444444444444],[124.833055555555561,8.329722222222223],[124.833055555555561,8.330277777777779],[124.833333333333343,8.330555555555556],[124.833333333333343,8.331111111111111],[124.833611111111111,8.33138888888889],[124.833611111111111,8.331666666666667],[124.834166666666675,8.332222222222223],[124.834166666666675,8.3325],[124.834444444444443,8.332777777777778],[124.834444444444443,8.333055555555557],[124.834722222222226,8.333333333333334],[124.834722222222226,8.333611111111113],[124.835833333333341,8.334722222222222],[124.835833333333341,8.335],[124.836111111111109,8.335277777777778],[124.836111111111109,8.336111111111112],[124.835833333333341,8.336388888888889],[124.835833333333341,8.338055555555556],[124.836111111111109,8.338333333333335],[124.836111111111109,8.338611111111112],[124.836944444444441,8.339444444444446],[124.837222222222223,8.339444444444446],[124.8375,8.339722222222223]]]}},
{"type":"Feature","properties":{"cat":595,"value":202,"label":null},"geometry":{"type":"MultiLineString","coordinates":[[[124.8425,8.321944444444446],[124.8425,8.322222222222223],[124.842222222222219,8.3225],[124.842222222222219,8.322777777777778],[124.841944444444451,8.323055555555557],[124.841944444444451,8.32388888888889],[124.842222222222219,8.324166666666667],[124.842222222222219,8.324444444444445],[124.843055555555551,8.325277777777778],[124.843055555555551,8.326388888888889],[124.841944444444451,8.3275],[124.841944444444451,8.329166666666667],[124.841388888888886,8.329722222222223],[124.841388888888886,8.33],[124.841944444444451,8.330555555555556],[124.841944444444451,8.330833333333334],[124.8425,8.33138888888889],[124.8425,8.332777777777778],[124.842222222222219,8.333055555555557],[124.842222222222219,8.334722222222222],[124.842777777777783,8.335277777777778],[124.842777777777783,8.335555555555556],[124.8425,8.335833333333333],[124.8425,8.336111111111112],[124.841944444444451,8.336666666666668],[124.841944444444451,8.337222222222223],[124.841666666666669,8.3375],[124.841666666666669,8.338611111111112],[124.841944444444451,8.33888888888889],[124.841944444444451,8.339722222222223],[124.841666666666669,8.34],[124.841666666666669,8.340555555555556],[124.841388888888886,8.340833333333334],[124.841388888888886,8.341111111111111],[124.841666666666669,8.34138888888889],[124.841666666666669,8.341666666666667],[124.841388888888886,8.341944444444445],[124.841111111111118,8.341944444444445],[124.840833333333336,8.342222222222222]]]}},
{"type":"Feature","properties":{"cat":597,"value":202,"label":null},"geometry":{"type":"MultiLineString","coordinates":[[[124.8425,8.321666666666667],[124.8425,8.321944444444446]]]}},
{"type":"Feature","properties":{"cat":598,"value":204,"label":null},"geometry":{"type":"MultiLineString","coordinates":[[[124.842777777777783,8.321666666666667],[124.8425,8.321666666666667]]]}},
{"type":"Feature","properties":{"cat":599,"value":204,"label":null},"geometry":{"type":"MultiLineString","coordinates":[[[124.8425,8.32138888888889],[124.8425,8.321666666666667]]]}},
{"type":"Feature","properties":{"cat":600,"value":192,"label":null},"geometry":{"type":"MultiLineString","coordinates":[[[124.835,8.320555555555556],[124.835,8.320833333333335],[124.834444444444443,8.32138888888889],[124.835277777777776,8.322222222222223],[124.835277777777776,8.323333333333334],[124.835833333333341,8.32388888888889],[124.835833333333341,8.325833333333334],[124.836111111111109,8.326111111111112],[124.836111111111109,8.328611111111112],[124.836388888888891,8.328888888888891],[124.836388888888891,8.330833333333334]]]}},
{"type":"Feature","properties":{"cat":603,"value":194,"label":null},"geometry":{"type":"MultiLineString","coordinates":[[[124.835,8.320277777777779],[124.834722222222226,8.320277777777779]]]}},
{"type":"Feature","properties":{"cat":604,"value":192,"label":null},"geometry":{"type":"MultiLineString","coordinates":[[[124.835,8.320277777777779],[124.835,8.320555555555556]]]}},
{"type":"Feature","properties":{"cat":607,"value":194,"label":null},"geometry":{"type":"MultiLineString","coordinates":[[[124.834722222222226,8.32],[124.834444444444443,8.32]]]}},
{"type":"Feature","properties":{"cat":608,"value":194,"label":null},"geometry":{"type":"MultiLineString","coordinates":[[[124.834722222222226,8.32],[124.834722222222226,8.320277777777779]]]}},
{"type":"Feature","properties":{"cat":609,"value":218,"label":null},"geometry":{"type":"MultiLineString","coordinates":[[[124.843333333333334,8.319444444444445],[124.843333333333334,8.319722222222223],[124.843611111111116,8.32],[124.843611111111116,8.320277777777779],[124.843333333333334,8.320555555555556],[124.843333333333334,8.321111111111112],[124.842777777777783,8.321666666666667]]]}},
{"type":"Feature","properties":{"cat":610,"value":218,"label":null},"geometry":{"type":"MultiLineString","coordinates":[[[124.843611111111116,8.319166666666668],[124.843333333333334,8.319166666666668],[124.843333333333334,8.319444444444445]]]}},
{"type":"Feature","properties":{"cat":615,"value":200,"label":null},"geometry":{"type":"MultiLineString","coordinates":[[[124.836388888888891,8.317777777777778],[124.836388888888891,8.318333333333333],[124.834722222222226,8.32]]]}},
{"type":"Feature","properties":{"cat":640,"value":204,"label":null},"geometry":{"type":"MultiLineString","coordinates":[[[124.841666666666669,8.312222222222223],[124.841666666666669,8.31388888888889],[124.841388888888886,8.314166666666667],[124.841388888888886,8.314444444444446],[124.841666666666669,8.314722222222223],[124.841666666666669,8.315],[124.841944444444451,8.315277777777778],[124.841944444444451,8.315555555555557],[124.842222222222219,8.315833333333334],[124.842222222222219,8.316388888888889],[124.841944444444451,8.316666666666668],[124.841944444444451,8.317222222222224],[124.8425,8.317777777777778],[124.8425,8.318611111111112],[124.841388888888886,8.319722222222223],[124.841388888888886,8.320277777777779],[124.8425,8.32138888888889]]]}},
{"type":"Feature","properties":{"cat":643,"value":204,"label":null},"geometry":{"type":"MultiLineString","coordinates":[[[124.841666666666669,8.311944444444446],[124.841666666666669,8.312222222222223]]]}},
{"type":"Feature","properties":{"cat":644,"value":206,"label":null},"geometry":{"type":"MultiLineString","coordinates":[[[124.841944444444451,8.311944444444446],[124.841666666666669,8.311944444444446]]]}},
{"type":"Feature","properties":{"cat":646,"value":206,"label":null},"geometry":{"type":"MultiLineString","coordinates":[[[124.841666666666669,8.311666666666667],[124.841666666666669,8.311944444444446]]]}},
{"type":"Feature","properties":{"cat":653,"value":218,"label":null},"geometry":{"type":"MultiLineString","coordinates":[[[124.845833333333331,8.309444444444445],[124.845833333333331,8.309722222222224],[124.845277777777781,8.310277777777779],[124.845277777777781,8.310555555555556],[124.845,8.310833333333335],[124.845,8.311666666666667],[124.845277777777781,8.311944444444446],[124.845277777777781,8.3125],[124.845,8.312777777777779],[124.844722222222231,8.312777777777779],[124.844444444444449,8.313055555555556],[124.844444444444449,8.31388888888889],[124.844722222222231,8.314166666666667],[124.844722222222231,8.314444444444446],[124.845,8.314722222222223],[124.845,8.315],[124.844722222222231,8.315277777777778],[124.844444444444449,8.315277777777778],[124.844166666666666,8.315555555555557],[124.844166666666666,8.318611111111112],[124.843611111111116,8.319166666666668]]]}},
{"type":"Feature","properties":{"cat":654,"value":218,"label":null},"geometry":{"type":"MultiLineString","coordinates":[[[124.845833333333331,8.309166666666668],[124.845555555555563,8.309166666666668]]]}},
{"type":"Feature","properties":{"cat":655,"value":218,"label":null},"geometry":{"type":"MultiLineString","coordinates":[[[124.845833333333331,8.309166666666668],[124.845833333333331,8.309444444444445]]]}},
{"type":"Feature","properties":{"cat":658,"value":218,"label":null},"geometry":{"type":"MultiLineString","coordinates":[[[124.845555555555563,8.308888888888889],[124.845555555555563,8.309166666666668]]]}},
{"type":"Feature","properties":{"cat":662,"value":194,"label":null},"geometry":{"type":"MultiLineString","coordinates":[[[124.831944444444446,8.308333333333334],[124.831944444444446,8.308611111111112],[124.832222222222228,8.308888888888889],[124.832222222222228,8.309166666666668],[124.8325,8.309444444444445],[124.8325,8.31],[124.832222222222228,8.310277777777779],[124.832222222222228,8.31138888888889],[124.8325,8.311666666666667],[124.8325,8.311944444444446],[124.832777777777778,8.312222222222223],[124.832777777777778,8.3125],[124.8325,8.312777777777779],[124.8325,8.31388888888889],[124.833611111111111,8.315],[124.833611111111111,8.315555555555557],[124.833333333333343,8.315833333333334],[124.833333333333343,8.316388888888889],[124.833888888888893,8.316944444444445],[124.833888888888893,8.318333333333333],[124.834166666666675,8.318611111111112],[124.834166666666675,8.318888888888889],[124.833888888888893,8.319166666666668],[124.833888888888893,8.319444444444445],[124.834444444444443,8.32]]]}},
{"type":"Feature","properties":{"cat":663,"value":194,"label":null},"geometry":{"type":"MultiLineString","coordinates":[[[124.831944444444446,8.308055555555557],[124.831666666666663,8.308055555555557]]]}},
{"type":"Feature","properties":{"cat":664,"value":194,"label":null},"geometry":{"type":"MultiLineString","coordinates":[[[124.831944444444446,8.308055555555557],[124.831944444444446,8.308333333333334]]]}},
{"type":"Feature","properties":{"cat":666,"value":194,"label":null},"geometry":{"type":"MultiLineString","coordinates":[[[124.831666666666663,8.307777777777778],[124.831666666666663,8.308055555555557]]]}},
{"type":"Feature","properties":{"cat":669,"value":218,"label":null},"geometry":{"type":"MultiLineString","coordinates":[[[124.846111111111114,8.307222222222222],[124.845833333333331,8.3075],[124.845833333333331,8.307777777777778],[124.845555555555563,8.308055555555557],[124.845555555555563,8.308888888888889]]]}},
{"type":"Feature","properties":{"cat":670,"value":218,"label":null},"geometry":{"type":"MultiLineString","coordinates":[[[124.846111111111114,8.306944444444445],[124.845833333333331,8.306944444444445]]]}},
{"type":"Feature","properties":{"cat":671,"value":218,"label":null},"geometry":{"type":"MultiLineString","coordinates":[[[124.846111111111114,8.306944444444445],[124.846111111111114,8.307222222222222]]]}},
{"type":"Feature","properties":{"cat":672,"value":218,"label":null},"geometry":{"type":"MultiLineString","coordinates":[[[124.846111111111114,8.306666666666667],[124.846111111111114,8.306944444444445]]]}},
{"type":"Feature","properties":{"cat":693,"value":206,"label":null},"geometry":{"type":"MultiLineString","coordinates":[[[124.839444444444453,8.303333333333335],[124.839444444444453,8.304166666666667],[124.840277777777786,8.305],[124.840277777777786,8.307222222222222],[124.840833333333336,8.307777777777778],[124.840833333333336,8.308055555555557],[124.840555555555554,8.308333333333334],[124.840555555555554,8.309166666666668],[124.840833333333336,8.309444444444445],[124.840833333333336,8.309722222222224],[124.841388888888886,8.310277777777779],[124.841388888888886,8.31138888888889],[124.841666666666669,8.311666666666667]]]}},
{"type":"Feature","properties":{"cat":694,"value":206,"label":null},"geometry":{"type":"MultiLineString","coordinates":[[[124.839444444444453,8.303055555555556],[124.839444444444453,8.303333333333335]]]}},
{"type":"Feature","properties":{"cat":695,"value":208,"label":null},"geometry":{"type":"MultiLineString","coordinates":[[[124.839722222222221,8.303055555555556],[124.839444444444453,8.303055555555556]]]}},
{"type":"Feature","properties":{"cat":696,"value":208,"label":null},"geometry":{"type":"MultiLineString","coordinates":[[[124.839166666666671,8.302777777777779],[124.839444444444453,8.303055555555556]]]}},
{"type":"Feature","properties":{"cat":697,"value":218,"label":null},"geometry":{"type":"MultiLineString","coordinates":[[[124.846388888888896,8.302777777777779],[124.846388888888896,8.303055555555556],[124.846666666666664,8.303333333333335],[124.846666666666664,8.30388888888889],[124.846388888888896,8.304166666666667],[124.846388888888896,8.30638888888889],[124.846111111111114,8.306666666666667]]]}},
{"type":"Feature","properties":{"cat":700,"value":208,"label":null},"geometry":{"type":"MultiLineString","coordinates":[[[124.838888888888889,8.3025],[124.838888888888889,8.302777777777779],[124.839166666666671,8.302777777777779]]]}},
{"type":"Feature","properties":{"cat":751,"value":214,"label":null},"geometry":{"type":"MultiLineString","coordinates":[[[124.84,8.289444444444445],[124.839722222222221,8.289722222222222],[124.839722222222221,8.290833333333333],[124.84,8.291111111111112],[124.84,8.291944444444445],[124.839722222222221,8.292222222222223],[124.839722222222221,8.292777777777779],[124.838888888888889,8.293611111111112],[124.838888888888889,8.295],[124.838611111111121,8.295277777777779],[124.838611111111121,8.297222222222222],[124.838888888888889,8.2975],[124.838888888888889,8.298333333333334],[124.839166666666671,8.298611111111112],[124.839166666666671,8.299722222222224],[124.839444444444453,8.3],[124.839444444444453,8.301666666666668],[124.839722222222221,8.301944444444445],[124.839722222222221,8.3025],[124.84,8.302777777777779],[124.839722222222221,8.303055555555556]]]}},
{"type":"Feature","properties":{"cat":758,"value":208,"label":null},"geometry":{"type":"MultiLineString","coordinates":[[[124.835833333333341,8.287777777777778],[124.836388888888891,8.288333333333334],[124.836388888888891,8.288611111111113],[124.835833333333341,8.289166666666668],[124.836388888888891,8.289722222222222],[124.836388888888891,8.290555555555557],[124.836111111111109,8.290833333333333],[124.836111111111109,8.292222222222223],[124.835555555555558,8.292777777777779],[124.835555555555558,8.294166666666667],[124.836111111111109,8.294722222222223],[124.836111111111109,8.295277777777779],[124.835833333333341,8.295555555555556],[124.835833333333341,8.296111111111111],[124.836388888888891,8.296666666666667],[124.836388888888891,8.298055555555557],[124.837222222222223,8.298888888888889],[124.837222222222223,8.299444444444445],[124.837777777777774,8.3],[124.837777777777774,8.300555555555556],[124.838055555555556,8.300833333333333],[124.838055555555556,8.301111111111112],[124.838333333333338,8.301388888888889],[124.838333333333338,8.301666666666668],[124.838611111111121,8.301944444444445],[124.838611111111121,8.302222222222223],[124.838888888888889,8.3025]]]}},
{"type":"Feature","properties":{"cat":759,"value":216,"label":null},"geometry":{"type":"MultiLineString","coordinates":[[[124.845277777777781,8.287777777777778],[124.845277777777781,8.288055555555557],[124.845,8.288333333333334],[124.845,8.289444444444445],[124.845277777777781,8.289722222222222],[124.845277777777781,8.290833333333333],[124.845,8.291111111111112],[124.845,8.291666666666668],[124.845833333333331,8.2925],[124.845833333333331,8.292777777777779],[124.845555555555563,8.293055555555556],[124.845555555555563,8.294166666666667],[124.845277777777781,8.294444444444446],[124.845277777777781,8.295],[124.845,8.295277777777779],[124.844444444444449,8.295277777777779],[124.844166666666666,8.295555555555556],[124.844166666666666,8.296666666666667],[124.843888888888898,8.296944444444446],[124.843888888888898,8.303611111111111],[124.843611111111116,8.30388888888889],[124.843611111111116,8.305],[124.843333333333334,8.305277777777778],[124.843333333333334,8.305555555555557],[124.843611111111116,8.305833333333334],[124.843611111111116,8.3075],[124.843333333333334,8.307777777777778],[124.843333333333334,8.308333333333334],[124.843055555555551,8.308611111111112],[124.843055555555551,8.308888888888889],[124.842777777777783,8.309166666666668],[124.842777777777783,8.309722222222224],[124.843055555555551,8.31],[124.843055555555551,8.310277777777779],[124.842777777777783,8.310555555555556],[124.842777777777783,8.31138888888889],[124.8425,8.311666666666667],[124.842222222222219,8.311666666666667],[124.841944444444451,8.311944444444446]]]}},
{"type":"Feature","properties":{"cat":760,"value":208,"label":null},"geometry":{"type":"MultiLineString","coordinates":[[[124.835555555555558,8.2875],[124.835555555555558,8.287777777777778],[124.835833333333341,8.287777777777778]]]}},
{"type":"Feature","properties":{"cat":761,"value":216,"label":null},"geometry":{"type":"MultiLineString","coordinates":[[[124.845277777777781,8.2875],[124.845277777777781,8.287777777777778]]]}},
{"type":"Feature","properties":{"cat":762,"value":216,"label":null},"geometry":{"type":"MultiLineString","coordinates":[[[124.845555555555563,8.2875],[124.845277777777781,8.2875]]]}},
{"type":"Feature","properties":{"cat":763,"value":216,"label":null},"geometry":{"type":"MultiLineString","coordinates":[[[124.845555555555563,8.287222222222223],[124.845555555555563,8.2875]]]}},
{"type":"Feature","properties":{"cat":790,"value":216,"label":null},"geometry":{"type":"MultiLineString","coordinates":[[[124.845555555555563,8.282222222222224],[124.845277777777781,8.2825],[124.845277777777781,8.283888888888889],[124.845,8.284166666666668],[124.845,8.285],[124.844722222222231,8.285277777777779],[124.844722222222231,8.285555555555556],[124.845,8.285833333333334],[124.845,8.28638888888889],[124.845277777777781,8.286666666666667],[124.845277777777781,8.286944444444446],[124.845555555555563,8.287222222222223]]]}},
{"type":"Feature","properties":{"cat":795,"value":208,"label":null},"geometry":{"type":"MultiLineString","coordinates":[[[124.836944444444441,8.281666666666668],[124.836944444444441,8.2825],[124.836666666666673,8.282777777777779],[124.836666666666673,8.283055555555556],[124.836944444444441,8.283333333333335],[124.836944444444441,8.284166666666668],[124.836666666666673,8.284444444444444],[124.836666666666673,8.284722222222223],[124.836388888888891,8.285],[124.836388888888891,8.285555555555556],[124.836111111111109,8.285833333333334],[124.836111111111109,8.286666666666667],[124.835555555555558,8.287222222222223],[124.835555555555558,8.2875]]]}},
{"type":"Feature","properties":{"cat":844,"value":208,"label":null},"geometry":{"type":"MultiLineString","coordinates":[[[124.8375,8.27138888888889],[124.8375,8.2725],[124.837777777777774,8.272777777777778],[124.8375,8.273055555555556],[124.8375,8.273333333333333],[124.837222222222223,8.273611111111112],[124.837222222222223,8.275],[124.8375,8.275277777777779],[124.8375,8.275555555555556],[124.837222222222223,8.275833333333335],[124.837222222222223,8.276111111111112],[124.836388888888891,8.276944444444446],[124.836388888888891,8.2775],[124.836666666666673,8.277777777777779],[124.836666666666673,8.28],[124.836388888888891,8.280277777777778],[124.836388888888891,8.281111111111112],[124.836944444444441,8.281666666666668]]]}},
{"type":"Feature","properties":{"cat":846,"value":194,"label":null},"geometry":{"type":"MultiLineString","coordinates":[[[124.833888888888893,8.269722222222223],[124.833888888888893,8.270277777777778],[124.833333333333343,8.270833333333334],[124.833333333333343,8.27138888888889],[124.833611111111111,8.271666666666668],[124.833611111111111,8.271944444444445],[124.833055555555561,8.2725],[124.833055555555561,8.272777777777778],[124.832777777777778,8.273055555555556],[124.832777777777778,8.273611111111112],[124.833055555555561,8.273888888888889],[124.833055555555561,8.274722222222223],[124.8325,8.275277777777779],[124.8325,8.276666666666667],[124.832222222222228,8.276944444444446],[124.832222222222228,8.277777777777779],[124.831944444444446,8.278055555555557],[124.831944444444446,8.281388888888889],[124.832222222222228,8.281666666666668],[124.832222222222228,8.282777777777779],[124.831944444444446,8.283055555555556],[124.831944444444446,8.283333333333335],[124.832222222222228,8.283611111111112],[124.832222222222228,8.284444444444444],[124.8325,8.284722222222223],[124.8325,8.285],[124.831944444444446,8.285555555555556],[124.831944444444446,8.286944444444446],[124.832222222222228,8.287222222222223],[124.832222222222228,8.288055555555557],[124.831388888888895,8.28888888888889],[124.831388888888895,8.289722222222222],[124.831111111111113,8.29],[124.831111111111113,8.290277777777778],[124.831388888888895,8.290555555555557],[124.831388888888895,8.291111111111112],[124.830833333333331,8.291666666666668],[124.831666666666663,8.2925],[124.831666666666663,8.293611111111112],[124.831388888888895,8.29388888888889],[124.831666666666663,8.294166666666667],[124.831666666666663,8.294722222222223],[124.831944444444446,8.295],[124.831944444444446,8.295555555555556],[124.831111111111113,8.29638888888889],[124.831111111111113,8.296666666666667],[124.831388888888895,8.296944444444446],[124.831944444444446,8.296944444444446],[124.832222222222228,8.297222222222222],[124.832222222222228,8.298611111111112],[124.831944444444446,8.298888888888889],[124.831944444444446,8.299166666666668],[124.831666666666663,8.299444444444445],[124.831666666666663,8.3],[124.831944444444446,8.300277777777779],[124.831944444444446,8.300555555555556],[124.831666666666663,8.300833333333333],[124.831666666666663,8.301388888888889],[124.831388888888895,8.301666666666668],[124.831388888888895,8.3025],[124.831666666666663,8.302777777777779],[124.831666666666663,8.303055555555556],[124.831944444444446,8.303333333333335],[124.831944444444446,8.304166666666667],[124.830833333333331,8.305277777777778],[124.831111111111113,8.305555555555557],[124.831388888888895,8.305555555555557],[124.831666666666663,8.305833333333334],[124.831944444444446,8.305833333333334],[124.832222222222228,8.306111111111113],[124.832222222222228,8.306666666666667],[124.831666666666663,8.307222222222222],[124.831666666666663,8.307777777777778]]]}},
{"type":"Feature","properties":{"cat":847,"value":194,"label":null},"geometry":{"type":"MultiLineString","coordinates":[[[124.833888888888893,8.269444444444446],[124.833888888888893,8.269722222222223]]]}},
{"type":"Feature","properties":{"cat":848,"value":196,"label":null},"geometry":{"type":"MultiLineString","coordinates":[[[124.834166666666675,8.269444444444446],[124.833888888888893,8.269444444444446]]]}},
{"type":"Feature","properties":{"cat":850,"value":198,"label":null},"geometry":{"type":"MultiLineString","coordinates":[[[124.834166666666675,8.269166666666667],[124.834166666666675,8.269444444444446]]]}},
{"type":"Feature","properties":{"cat":853,"value":196,"label":null},"geometry":{"type":"MultiLineString","coordinates":[[[124.833055555555561,8.267777777777779],[124.833055555555561,8.268611111111111],[124.833888888888893,8.269444444444446]]]}},
{"type":"Feature","properties":{"cat":860,"value":208,"label":null},"geometry":{"type":"MultiLineString","coordinates":[[[124.843055555555551,8.263611111111112],[124.842777777777783,8.263888888888889],[124.842777777777783,8.264444444444445],[124.8425,8.264722222222224],[124.842222222222219,8.264722222222224],[124.841666666666669,8.265277777777779],[124.841666666666669,8.266944444444444],[124.841388888888886,8.267222222222223],[124.841388888888886,8.268055555555556],[124.841666666666669,8.268333333333334],[124.841111111111118,8.26888888888889],[124.841111111111118,8.27],[124.840555555555554,8.270555555555557],[124.840833333333336,8.270833333333334],[124.840555555555554,8.271111111111113],[124.840555555555554,8.27138888888889],[124.84,8.271944444444445],[124.84,8.272222222222224],[124.839722222222221,8.2725],[124.839722222222221,8.273611111111112],[124.839444444444453,8.273888888888889],[124.839444444444453,8.274444444444445],[124.839722222222221,8.274722222222223],[124.839722222222221,8.275833333333335],[124.839166666666671,8.27638888888889],[124.839166666666671,8.278333333333334],[124.838888888888889,8.278611111111111],[124.838888888888889,8.279444444444445],[124.838333333333338,8.28],[124.838055555555556,8.28],[124.837777777777774,8.280277777777778],[124.837777777777774,8.280833333333334],[124.836944444444441,8.281666666666668]]]}},
{"type":"Feature","properties":{"cat":861,"value":212,"label":null},"geometry":{"type":"MultiLineString","coordinates":[[[124.843055555555551,8.263333333333334],[124.842777777777783,8.263333333333334]]]}},
{"type":"Feature","properties":{"cat":862,"value":212,"label":null},"geometry":{"type":"MultiLineString","coordinates":[[[124.843055555555551,8.263333333333334],[124.843055555555551,8.263611111111112]]]}},
{"type":"Feature","properties":{"cat":863,"value":212,"label":null},"geometry":{"type":"MultiLineString","coordinates":[[[124.843055555555551,8.263055555555557],[124.843055555555551,8.263333333333334]]]}},
{"type":"Feature","properties":{"cat":905,"value":198,"label":null},"geometry":{"type":"MultiLineString","coordinates":[[[124.837777777777774,8.252777777777778],[124.837777777777774,8.253055555555557],[124.837222222222223,8.253611111111113],[124.837222222222223,8.255],[124.8375,8.255277777777779],[124.8375,8.256666666666668],[124.837777777777774,8.256944444444445],[124.837777777777774,8.25888888888889],[124.8375,8.259166666666667],[124.837222222222223,8.259166666666667],[124.836944444444441,8.259444444444446],[124.836944444444441,8.260555555555557],[124.837222222222223,8.260833333333334],[124.836944444444441,8.261111111111113],[124.836944444444441,8.261666666666667],[124.836666666666673,8.261944444444445],[124.836666666666673,8.262222222222222],[124.836388888888891,8.2625],[124.836388888888891,8.263611111111112],[124.836111111111109,8.263888888888889],[124.836111111111109,8.264166666666668],[124.835833333333341,8.264444444444445],[124.835833333333341,8.265277777777779],[124.836111111111109,8.265555555555556],[124.835,8.266666666666667],[124.835,8.267222222222223],[124.834722222222226,8.2675],[124.834722222222226,8.267777777777779],[124.834444444444443,8.268055555555556],[124.834444444444443,8.268333333333334],[124.834166666666675,8.268611111111111],[124.834166666666675,8.269166666666667]]]}},
{"type":"Feature","properties":{"cat":926,"value":212,"label":null},"geometry":{"type":"MultiLineString","coordinates":[[[124.843611111111116,8.248055555555556],[124.843611111111116,8.249166666666667],[124.843055555555551,8.249722222222223],[124.843055555555551,8.250277777777779],[124.842777777777783,8.250555555555556],[124.842777777777783,8.253055555555557],[124.843055555555551,8.253333333333334],[124.843055555555551,8.253888888888889],[124.842777777777783,8.254166666666668],[124.842777777777783,8.255],[124.843333333333334,8.255555555555556],[124.843333333333334,8.258611111111112],[124.843888888888898,8.259166666666667],[124.843888888888898,8.259444444444446],[124.843055555555551,8.260277777777778],[124.843055555555551,8.260555555555557],[124.843333333333334,8.260833333333334],[124.843333333333334,8.261111111111113],[124.843611111111116,8.26138888888889],[124.843611111111116,8.261666666666667],[124.843055555555551,8.262222222222222],[124.843055555555551,8.263055555555557]]]}}
]
}
