{
"type": "FeatureCollection",
"name": "sensorLocation",
"crs": { "type": "name", "properties": { "name": "urn:ogc:def:crs:OGC:1.3:CRS84" } },
"features": [
  {
    "type": "Feature",
    "properties": {
      "id": 2,
      "name": "Dicklum River Node 1",
      "description": "Primary water quality monitoring station positioned along the Dicklum River. Continuously measures pH, turbidity, TDS, and water temperature.",
      "location": "Dicklum River, Barangay Dicklum, Malaybalay City, Bukidnon",
      "photo": "/assets/img/location.jpg"
    },
    "geometry": { "type": "Point", "coordinates": [124.845041684872612, 8.381900911471508] }
  }
]
}
